STARLINK-1372_new
1 15543C 20025N   21326.16043093  .00001910  00000-0  12803-3 0  3262
2 15543  53.0531 308.0165 0001697  53.5442 244.3265 15.06389293    12
STARLINK-1372_old
1 25543C 20025N   21325.11804626 -.00000135  00000-0 -90129-5 0  3251
2 25543  53.0527 312.6963 0001730  55.2078 346.5986 15.06408466    15
